[{"OBJECT_NAME":"STARLINK-34987","OBJECT_ID":"2025-179W","EPOCH":"2026-03-09T16:10:18.932736","MEAN_MOTION":15.05651677,"ECCENTRICITY":2.791e-5,"INCLINATION":97.6034,"RA_OF_ASC_NODE":112.9118,"ARG_OF_PERICENTER":115.2852,"MEAN_ANOMALY":244.8404,"EPHEMERIS_TYPE":0,"CLASSIFICATION_TYPE":"U","NORAD_CAT_ID":65255,"ELEMENT_SET_NO":999,"REV_AT_EPOCH":3180,"BSTAR":0.00024609509,"MEAN_MOTION_DOT":3.492e-5,"MEAN_MOTION_DDOT":0},{"OBJECT_NAME":"CZ-2D DEB","OBJECT_ID":"2017-060B","EPOCH":"2026-03-09T14:15:36.855648","MEAN_MOTION":14.99543568,"ECCENTRICITY":0.002893,"INCLINATION":97.5408,"RA_OF_ASC_NODE":90.0945,"ARG_OF_PERICENTER":284.1616,"MEAN_ANOMALY":75.6394,"EPHEMERIS_TYPE":0,"CLASSIFICATION_TYPE":"U","NORAD_CAT_ID":44609,"ELEMENT_SET_NO":999,"REV_AT_EPOCH":45025,"BSTAR":0.00057261,"MEAN_MOTION_DOT":7.042e-5,"MEAN_MOTION_DDOT":0}]
